GLOBALSTAR M024 [-]     
1 25883U 99043A   24093.79866574 -.00000007  00000+0  20526-2 0  9995
2 25883  52.0022 294.2854 0002376  99.2170 274.5556 11.10160604 65958
GLOBALSTAR M027 [-]     
1 25884U 99043B   24094.06183872 -.00000051  00000+0  47674-3 0  9993
2 25884  52.0260 359.2040 0021583   2.1352 357.9530 11.04367201 92658
GLOBALSTAR M054 [-]     
1 25885U 99043C   24094.03410567 -.00000130  00000+0 -15045-2 0  9990
2 25885  52.0125 200.4270 0005289 139.5306  29.3691 11.39204579 69210
GLOBALSTAR M053 [-]     
1 25886U 99043D   24094.52333948 -.00000057  00000+0  32615-3 0  9992
2 25886  51.9952 121.9587 0003223  58.8000 111.5059 11.27654387 69984
GLOBALSTAR M058 [-]     
1 25907U 99049A   24093.58844074 -.00000124  00000+0 -52990-3 0  9998
2 25907  51.9931 205.6651 0002937 145.7507 214.3517 11.93178078100153
GLOBALSTAR M050 [-]     
1 25908U 99049B   24094.38497661  .00000044  00000+0  14960-2 0  9997
2 25908  51.9978 244.0714 0008641 230.8679 144.8912 12.07431519 99797
GLOBALSTAR M033 [-]     
1 25909U 99049C   24093.83789855 -.00000108  00000+0 -16074-3 0  9998
2 25909  51.9898 147.8235 0011858  86.4701 273.7502 12.20269369481982
GLOBALSTAR M055 [-]     
1 25910U 99049D   24093.92833943 -.00000072  00000+0  18744-3 0  9993
2 25910  52.0010 179.7406 0006501 296.3563  63.6621 12.29398276114354
